{
    "links": {
        "self": "http://www.neowsapp.com/rest/v1/neo/3477946?api_key=iIulBulltgU6a56xZRHN4H3l9WmuAYTsLGpBGhQ2"
    },
    "id": "3477946",
    "neo_reference_id": "3477946",
    "name": "(2009 WO8)",
    "designation": "2009 WO8",
    "nasa_jpl_url": "http://ssd.jpl.nasa.gov/sbdb.cgi?sstr=3477946",
    "absolute_magnitude_h": 27.2,
    "estimated_diameter": {
        "kilometers": {
            "estimated_diameter_min": 0.0096506147,
            "estimated_diameter_max": 0.0215794305
        },
        "meters": {
            "estimated_diameter_min": 9.6506146958,
            "estimated_diameter_max": 21.5794304844
        },
        "miles": {
            "estimated_diameter_min": 0.0059966121,
            "estimated_diameter_max": 0.0134088323
        },
        "feet": {
            "estimated_diameter_min": 31.6621227185,
            "estimated_diameter_max": 70.7986587106
        }
    },
    "is_potentially_hazardous_asteroid": false,
    "close_approach_data": [
        {
            "close_approach_date": "2008-01-16",
            "close_approach_date_full": "2008-Jan-16 10:34",
            "epoch_date_close_approach": 1200479640000,
            "relative_velocity": {
                "kilometers_per_second": "15.5304755519",
                "kilometers_per_hour": "55909.7119869642",
                "miles_per_hour": "34740.1207621223"
            },
            "miss_distance": {
                "astronomical": "0.3841790966",
                "lunar": "149.4456685774",
                "kilometers": "57472374.549884242",
                "miles": "35711677.5728048596"
            },
            "orbiting_body": "Earth"
        },
        {
            "close_approach_date": "2009-11-22",
            "close_approach_date_full": "2009-Nov-22 06:32",
            "epoch_date_close_approach": 1258871520000,
            "relative_velocity": {
                "kilometers_per_second": "6.3772111158",
                "kilometers_per_hour": "22957.9600170078",
                "miles_per_hour": "14265.1835450125"
            },
            "miss_distance": {
                "astronomical": "0.0284497855",
                "lunar": "11.0669665595",
                "kilometers": "4256027.312756885",
                "miles": "2644572.741679613"
            },
            "orbiting_body": "Earth"
        },
        {
            "close_approach_date": "2011-10-13",
            "close_approach_date_full": "2011-Oct-13 12:33",
            "epoch_date_close_approach": 1318509180000,
            "relative_velocity": {
                "kilometers_per_second": "17.2677036361",
                "kilometers_per_hour": "62163.7330900662",
                "miles_per_hour": "38626.1262636581"
            },
            "miss_distance": {
                "astronomical": "0.4215981171",
                "lunar": "164.0016675519",
                "kilometers": "63070180.314170577",
                "miles": "39189992.7831128826"
            },
            "orbiting_body": "Earth"
        }
    ],
    "orbital_data": {
        "orbit_id": "7",
        "orbit_determination_date": "2017-04-06 08:59:03",
        "first_observation_date": "2009-11-20",
        "last_observation_date": "2009-11-21",
        "data_arc_in_days": 1,
        "observations_used": 22,
        "orbit_uncertainty": "8",
        "minimum_orbit_intersection": ".0281986",
        "jupiter_tisserand_invariant": "4.363",
        "epoch_osculation": "2455155.5",
        "eccentricity": ".3500915371721154",
        "semi_major_axis": "1.553395958575635",
        "inclination": "8.2553406990494",
        "ascending_node_longitude": "237.6653327107541",
        "orbital_period": "707.1665068971355",
        "perihelion_distance": "1.009565179600939",
        "perihelion_argument": "194.4009340743124",
        "aphelion_distance": "2.09722673755033",
        "perihelion_time": "2455168.330557257960",
        "mean_anomaly": "353.4682983882642",
        "mean_motion": ".5090738835745874",
        "equinox": "J2000",
        "orbit_class": {
            "orbit_class_type": "APO",
            "orbit_class_description": "Near-Earth asteroid orbits which cross the Earth’s orbit similar to that of 1862 Apollo",
            "orbit_class_range": "a (semi-major axis) > 1.0 AU; q (perihelion) < 1.017 AU"
        }
    },
    "is_sentry_object": false
}